UNKNOWN                 
1 87456U          25283.23035062  .00011785  00000+0  18365-2 0  9997
2 87456  65.7819 259.3774 0509923  37.8152 325.7627 14.11993483602529
UNKNOWN                 
1 87517U          25290.51021392  .00003656  00000+0  10507-2 0  9993
2 87517  65.8260   9.7439 0674190 333.2299  40.3792 13.60470444585261
UNKNOWN                 
1 87541U          25284.54264716  .00000280  00000+0  62628-3 0  9997
2 87541  99.7089 141.5685 0060596  52.7475 337.4550 13.35548000573736
UNKNOWN                 
1 87553U          25290.13672019  .00003629  00000+0  11008-2 0  9996
2 87553  65.6684 132.8074 0704640 252.3828  99.9113 13.52820609583599
UNKNOWN                 
1 87557U          25288.34403676  .00004992  00000+0  11221-1 0  9991
2 87557 101.7121 136.3005 0045184 148.8277 211.5531 13.27050707557281
UNKNOWN                 
1 87561U          25290.95936995 -.00000044  00000+0 -47291-5 0  9997
2 87561 102.0189 350.0283 0174034  35.6562 137.3593 12.32150034535563
UNKNOWN                 
1 87565U          25278.91329094  .00002664  00000+0  14550-2 0  9996
2 87565  99.9417 263.9210 0173206 354.9201   5.0201 14.05717262606902
UNKNOWN                 
1 87569U          25290.33746853 -.00000017  00000+0  16208-3 0  9990
2 87569 101.9898 105.5216 0055675   4.2297 115.1448 12.68538545551311
UNKNOWN                 
1 87587U          25288.50502846  .00000335  00000+0  11462-3 0  9997
2 87587  74.0256 210.5740 0021649 261.4059  98.4643 14.40011988625428
UNKNOWN                 
1 87590U          25286.57775699  .00000792  00000+0  46959-3 0  9990
2 87590  98.7962 325.0454 0027897  94.6321  61.9161 14.10211661145763
UNKNOWN                 
1 87616U          25290.36158634  .00000197  00000+0  83777-3 0  9993
2 87616  66.0319 259.4364 0634937 163.7435 349.5972 12.46825305529202
UNKNOWN                 
1 87624U          25290.26751090  .00009551  00000+0  15199-2 0  9991
2 87624  98.6717 224.1895 0102112  64.9392 296.2369 14.68781920571981
UNKNOWN                 
1 87650U          25286.18739146  .00019852  00000+0  41462-2 0  9991
2 87650 100.2719  87.0446 0032603  99.5202 260.9678 14.59575619 70926
UNKNOWN                 
1 87672U          25285.32903990  .00001616  00000+0  66664-3 0  9991
2 87672  70.8570 139.2975 0058719   5.5126 354.6635 14.27418348615695
UNKNOWN                 
1 87681U          25290.47079220  .00000912  00000+0  10068-2 0  9997
2 87681  66.7359 231.9427 0161320 200.4092 159.0483 13.70939638594126
UNKNOWN                 
1 87690U          25290.84838617  .00011306  00000+0  17425-2 0  9994
2 87690  65.7922 139.2186 0578644  76.4271 290.0554 13.99680303599554
UNKNOWN                 
1 87706U          25290.78324508  .00006010  00000+0  10703-2 0  9992
2 87706  98.6762 111.3988 0107158  81.1707 294.4771 14.63750661570336
UNKNOWN                 
1 87725U          25290.77153401  .00036995  00000+0  38517-2 0  9992
2 87725  82.8706 306.6195 0011153 217.8573 142.1864 14.89610110625578
UNKNOWN                 
1 87730U          25290.24655899  .00000137  00000+0  12806-3 0  9991
2 87730  82.9408 275.9047 0030442 158.7578 201.4849 13.74492069577570
UNKNOWN                 
1 87737U          25289.39753330  .00000063  00000+0  11023-3 0  9999
2 87737  99.3807 162.4245 0133102 339.5779  20.0076 13.72327375595999
UNKNOWN                 
1 87764U          25290.19560435  .00005746  00000+0  99990-3 0  9993
2 87764  65.6728 317.9501 0363870 106.5836 330.2668 14.33620150611012
UNKNOWN                 
1 87771U          25289.29238610  .00000114  00000+0  38787-3 0  9998
2 87771 100.7490 124.2011 0119535 132.3812 228.7494 13.19495641527517
UNKNOWN                 
1 87782U          25290.90511380  .00004239  00000+0  14085-1 0  9993
2 87782 102.3210 155.2103 0071382 336.0640  23.7144 13.00015888560739
UNKNOWN                 
1 87843U          25276.61288083  .00004133  00000+0  94101-2 0  9995
2 87843  99.6678  36.6805 0244531 170.0275 190.5821 13.16213341554933
UNKNOWN                 
1 87845U          25281.16808339  .00001407  00000+0  26799-2 0  9994
2 87845  98.8452 251.5656 0578076  44.6482 319.9702 12.88602955556767
UNKNOWN                 
1 87878U          25290.57972150  .00005372  00000+0  17034-2 0  9995
2 87878  99.1541  46.1709 0035959  72.9989 287.5132 14.40110113603217
UNKNOWN                 
1 87884U          25289.57146050  .00000664  00000+0  38824-3 0  9992
2 87884  98.7325  35.4277 0153496 228.8567 129.9272 14.05919877610331
UNKNOWN                 
1 87991U          25284.94091976 -.00000248  00000+0 -62159-3 0  9991
2 87991  28.6209 159.5157 0890247 336.7378  19.5136 12.34798668515351
UNKNOWN                 
1 89003U          25290.22784969  .00000441  00000+0  16019-3 0  9993
2 89003  74.0437 118.2873 0015417 192.1857 167.8926 14.36134798623431
UNKNOWN                 
1 89005U          25290.32231942  .00005596  00000+0  12847-2 0  9994
2 89005  97.8435 123.7088 0192433 205.0298 154.1472 14.45077575525941
UNKNOWN                 
1 89029U          25284.47666616  .00007665  00000+0  73197-3 0  9994
2 89029  98.0512 182.2042 0023262 162.7416 197.4599 14.93376640641789
UNKNOWN                 
1 89101U          25285.56351061 -.00000265  00000+0 -65955-3 0  9995
2 89101 100.4530 224.2353 0146356 244.5806 114.0091 13.03993437546877
UNKNOWN                 
1 89146U          25290.75716524  .00005887  00000+0  11033-2 0  9990
2 89146  98.2398 219.5444 0092746 230.2222 129.0785 14.62408153620698
UNKNOWN                 
1 89161U          25288.76773778  .00071086  00000+0  24139-2 0  9994
2 89161  97.6677 302.2864 0041881 268.0999  91.5443 15.29371648539693
UNKNOWN                 
1 89172U          25290.95396370  .00018038  00000+0  30009-2 0  9990
2 89172  82.0617 274.1930 0302578  92.5327 271.0536 14.43954448593830
UNKNOWN                 
1 89177U          25286.79006398  .00000100  00000+0  90643-4 0  9993
2 89177  82.9195 313.5854 0031287 311.0379  48.8072 13.73712583 54594
UNKNOWN                 
1 89183U          25290.99591892  .00000829  00000+0  76893-3 0  9993
2 89183  99.2143 203.3564 0130591 305.6188  53.2858 13.81495010599277
UNKNOWN                 
1 89184U          25290.87311456  .00038673  00000+0  54191-2 0  9991
2 89184  98.3932 153.1834 0011195 322.4227  37.6199 14.77319199483911
UNKNOWN                 
1 89213U          25290.61711474  .00000666  00000+0  45457-3 0  9997
2 89213  98.7842 166.6950 0227137 280.7679  76.7988 13.91502583444865
UNKNOWN                 
1 89251U          25290.43183804  .00040213  00000+0  22164-1 0  9999
2 89251  62.4714  76.9523 2850210  95.4866 297.3324  9.22964426367986
UNKNOWN                 
1 89261U          25290.24306085  .00001444  00000+0  44361-3 0  9995
2 89261  98.1530 287.0922 0012435 336.9193  23.1437 14.42942754525669
UNKNOWN                 
1 89304U          25290.77177148  .00017852  00000+0  23542-1 0  9993
2 89304  84.4244 118.7139 2846841  57.5861 337.0766  9.01898994433354
UNKNOWN                 
1 89314U          25286.18589808  .00006746  00000+0  96919-2 0  9993
2 89314  18.9506 212.2276 6978404 201.8059 100.8752  2.60141272 87273
UNKNOWN                 
1 89349U          25289.48687656 -.00000038  00000+0 -16023-3 0  9996
2 89349  90.2495   6.0642 0030635  61.6528 298.7676 12.96216618471332
UNKNOWN                 
1 89379U          25290.97344138  .00005734  00000+0  74436-2 0  9997
2 89379 100.4879 302.1196 0043811 262.8868  96.7288 13.62082763573188
UNKNOWN                 
1 89395U          25290.85207620  .00000322  00000+0  41249-2 0  9990
2 89395 102.3514 262.2355 0222203 220.7362 168.5324 12.01485934518033
UNKNOWN                 
1 89403U          25290.96618374  .00001110  00000+0  37309-2 0  9992
2 89403  90.2495   4.5373 0024249  13.6342 170.5087 12.98690017470582
UNKNOWN                 
1 89484U          25290.93658453  .00076292  00000+0  79502-1 0  9993
2 89484  84.1345 170.5122 2846994  99.5823 293.4144  9.08045119350356
UNKNOWN                 
1 89493U          25289.13649246  .00004192  00000+0  20851-2 0  9997
2 89493  99.0302 357.2322 0083410 202.3653 157.3875 14.15778143455796
UNKNOWN                 
1 89494U          25288.62270606  .00003703  00000+0  18464-2 0  9995
2 89494  99.0306 356.6037 0084018 203.9025 155.8237 14.15707925455573
